NORAD_CAT_ID,OBJECT_NAME,OBJECT_TYPE,EPOCH,MEAN_MOTION,ECCENTRICITY,INCLINATION,RA_OF_ASC_NODE,ARG_OF_PERICENTER,MEAN_ANOMALY,BSTAR,MEAN_MOTION_DOT,MEAN_MOTION_DDOT,TLE_LINE0,TLE_LINE1,TLE_LINE2,SEMIMAJOR_AXIS,PERIOD,APOGEE,PERIGEE,DECAYED
51886.0,STARLINK-3565,PAYLOAD,2022-10-22 20:23:44,15.08838961,0.0001530999999999,53.2169,138.0527,63.5869,296.5281,4.4022e-05,4.13e-06,0.0,0 STARLINK-3565,1 51886U 22022AL  22295.84982225  .00000413  00000-0  44022-4 0  9990,2 51886  53.2169 138.0527 0001531  63.5869 296.5281 15.08838961 36987,6917.884,95.438,540.808,538.689,0.0
51886.0,STARLINK-3565,PAYLOAD,2022-10-23 17:03:44,15.08851495,0.0001564,53.2172,134.1868,64.9455,295.17,0.0001133,1.516e-05,0.0,0 STARLINK-3565,1 51886U 22022AL  22296.71093016  .00001516  00000-0  11330-3 0  9998,2 51886  53.2172 134.1868 0001564  64.9455 295.1700 15.08851495 37112,6917.845,95.437,540.7919999999998,538.628,0.0
51886.0,STARLINK-3565,PAYLOAD,2022-10-23 23:25:17,15.08841209,0.0001659,53.2171,132.9977,62.5753,297.5408,-5.1426e-06,-3.700000000000001e-06,0.0,0 STARLINK-3565,1 51886U 22022AL  22296.97589986 -.00000370  00000-0 -51426-5 0  9993,2 51886  53.2171 132.9977 0001659  62.5753 297.5408 15.08841209 37155,6917.877,95.437,540.889,538.594,0.0
51886.0,STARLINK-3565,PAYLOAD,2022-10-24 05:46:50,15.08847073,0.0001626999999999,53.2176,131.8084,66.1276,293.9886,-8.659799999999999e-05,-1.666e-05,0.0,0 STARLINK-3565,1 51886U 22022AL  22297.24085658 -.00001666  00000-0 -86598-4 0  9997,2 51886  53.2176 131.8084 0001627  66.1276 293.9886 15.08847073 37191,6917.859,95.437,540.849,538.5980000000002,0.0
51886.0,STARLINK-3565,PAYLOAD,2022-10-24 16:54:32,15.08829361,0.0001579,53.2192,129.72799999999998,76.2057,283.9111,-3.2231e-05,-8.01e-06,0.0,0 STARLINK-3565,1 51886U 22022AL  22297.70454836 -.00000801  00000-0 -32231-4 0  9991,2 51886  53.2192 129.7280 0001579  76.2057 283.9111 15.08829361 37266,6917.913000000001,95.438,540.87,538.686,0.0
51886.0,STARLINK-3565,PAYLOAD,2022-10-24 18:29:56,15.08828979,0.0001530999999999,53.2188,129.4314,72.2373,287.8786,-3.8661e-05,-9.03e-06,0.0,0 STARLINK-3565,1 51886U 22022AL  22297.77078933 -.00000903  00000-0 -38661-4 0  9994,2 51886  53.2188 129.4314 0001531  72.2373 287.8786 15.08828979 37277,6917.9140000000025,95.438,540.8380000000002,538.72,0.0
51886.0,STARLINK-3565,PAYLOAD,2022-10-25 05:37:38,15.088301800000002,0.0001531999999999,53.2176,127.3508,64.8482,295.2669,-7.9949e-05,-1.56e-05,0.0,0 STARLINK-3565,1 51886U 22022AL  22298.23447244 -.00001560  00000-0 -79949-4 0  9995,2 51886  53.2176 127.3508 0001532  64.8482 295.2669 15.08830180 37343,6917.91,95.438,540.835,538.716,0.0
51886.0,STARLINK-3565,PAYLOAD,2022-10-25 19:56:06,15.08838782,0.0001604,53.218,124.6732,68.1154,292.0009,-9.7379e-05,-1.837e-05,0.0,0 STARLINK-3565,1 51886U 22022AL  22298.83063032 -.00001837  00000-0 -97379-4 0  9994,2 51886  53.2180 124.6732 0001604  68.1154 292.0009 15.08838782 37439,6917.884,95.438,540.859,538.639,0.0
51886.0,STARLINK-3565,PAYLOAD,2022-10-25 23:06:52,15.08836682,0.0001568,53.2178,124.0772,63.1197,296.9955,-5.5972e-05,-1.179e-05,0.0,0 STARLINK-3565,1 51886U 22022AL  22298.96311072 -.00001179  00000-0 -55972-4 0  9990,2 51886  53.2178 124.0772 0001568  63.1197 296.9955 15.08836682 37457,6917.891,95.438,540.84,538.6709999999998,0.0
51886.0,STARLINK-3565,PAYLOAD,2022-10-26 05:28:25,15.08831825,0.000149,53.2168,122.8878,65.6428,294.4719,3.2674e-05,2.32e-06,0.0,0 STARLINK-3565,1 51886U 22022AL  22299.22807259  .00000232  00000-0  32674-4 0  9998,2 51886  53.2168 122.8878 0001490  65.6428 294.4719 15.08831825 37496,6917.905,95.438,540.8009999999998,538.74,0.0
51886.0,STARLINK-3565,PAYLOAD,2022-10-26 18:11:30,15.08831047,0.000152,53.2172,120.508,64.2622,295.8527,0.00012582,1.715e-05,0.0,0 STARLINK-3565,1 51886U 22022AL  22299.75799407  .00001715  00000-0  12582-3 0  9993,2 51886  53.2172 120.5080 0001520  64.2622 295.8527 15.08831047 37573,6917.908,95.438,540.8240000000002,538.721,0.0
51886.0,STARLINK-3565,PAYLOAD,2022-10-27 05:19:12,15.08836783,0.000154,53.2174,118.4264,64.4901,295.625,0.00015639,2.202e-05,0.0,0 STARLINK-3565,1 51886U 22022AL  22300.22167249  .00002202  00000-0  15639-3 0  9999,2 51886  53.2174 118.4264 0001540  64.4901 295.6250 15.08836783 37640,6917.89,95.438,540.821,538.69,0.0
51886.0,STARLINK-3565,PAYLOAD,2022-10-27 11:40:45,15.08838859,0.0001536,53.2174,117.2368,64.7237,295.3915,0.00015489,2.178e-05,0.0,0 STARLINK-3565,1 51886U 22022AL  22300.48663210  .00002178  00000-0  15489-3 0  9991,2 51886  53.2174 117.2368 0001536  64.7237 295.3915 15.08838859 37687,6917.884,95.438,540.811,538.686,0.0
51886.0,STARLINK-3565,PAYLOAD,2022-10-27 19:37:40,15.08847236,0.000157,53.2174,115.7501,65.2991,294.8164,0.00017169,2.446e-05,0.0,0 STARLINK-3565,1 51886U 22022AL  22300.81782722  .00002446  00000-0  17169-3 0  9993,2 51886  53.2174 115.7501 0001570  65.2991 294.8164 15.08847236 37735,6917.858,95.437,540.809,538.637,0.0
51886.0,STARLINK-3565,PAYLOAD,2022-10-27 21:13:03,15.0884804,0.0001575999999999,53.2174,115.4528,65.2677,294.8479,0.00017925,2.567e-05,0.0,0 STARLINK-3565,1 51886U 22022AL  22300.88406670  .00002567  00000-0  17925-3 0  9999,2 51886  53.2174 115.4528 0001576  65.2677 294.8479 15.08848040 37742,6917.856,95.437,540.811,538.631,0.0
51886.0,STARLINK-3565,PAYLOAD,2022-10-28 17:53:04,15.08845865,0.0001612,53.2174,111.5871,65.88600000000001,294.2301,0.0001065999999999,1.409e-05,0.0,0 STARLINK-3565,1 51886U 22022AL  22301.74518769  .00001409  00000-0  10660-3 0  9991,2 51886  53.2174 111.5871 0001612  65.8860 294.2301 15.08845865 37875,6917.861999999999,95.437,540.8430000000002,538.612,0.0
51886.0,STARLINK-3565,PAYLOAD,2022-10-28 21:03:50,15.08846151,0.0001564999999999,53.2176,110.9923,65.0899,295.0256,8.0871e-05,9.99e-06,0.0,0 STARLINK-3565,1 51886U 22022AL  22301.87766754  .00000999  00000-0  80871-4 0  9999,2 51886  53.2176 110.9923 0001565  65.0899 295.0256 15.08846151 37898,6917.861999999999,95.437,540.809,538.644,0.0
51886.0,STARLINK-3565,PAYLOAD,2022-10-29 17:43:51,15.08844397,0.0001592,53.2175,107.1266,63.7531,296.3624,2.388e-05,9.2e-07,0.0,0 STARLINK-3565,1 51886U 22022AL  22302.73878579  .00000092  00000-0  23880-4 0  9995,2 51886  53.2175 107.1266 0001592  63.7531 296.3624 15.08844397 38022,6917.8669999999975,95.437,540.8330000000002,538.631,0.0
51886.0,STARLINK-3565,PAYLOAD,2022-10-29 20:54:37,15.08848171,0.0001601,53.2175,106.5318,63.2821,296.8335,1.4539e-05,-5.7e-07,0.0,0 STARLINK-3565,1 51886U 22022AL  22302.87126359 -.00000057  00000-0  14539-4 0  9995,2 51886  53.2175 106.5318 0001601  63.2821 296.8335 15.08848171 38041,6917.855,95.437,540.828,538.613,0.0
51886.0,STARLINK-3565,PAYLOAD,2022-10-30 20:45:24,15.08839201,0.0001574,53.2172,102.0712,61.1012,299.0138,2.9388e-05,1.8e-06,0.0,0 STARLINK-3565,1 51886U 22022AL  22303.86486595  .00000180  00000-0  29388-4 0  9990,2 51886  53.2172 102.0712 0001574  61.1012 299.0138 15.08839201 38191,6917.8830000000025,95.438,540.837,538.659,0.0
51886.0,STARLINK-3565,PAYLOAD,2022-10-31 11:03:52,15.08844833,0.0001547,53.2165,99.3939,56.0467,304.0672,9.7619e-05,1.266e-05,0.0,0 STARLINK-3565,1 51886U 22022AL  22304.46101962  .00001266  00000-0  97619-4 0  9997,2 51886  53.2165  99.3939 0001547  56.0467 304.0672 15.08844833 38286,6917.866,95.437,540.8009999999998,538.66,0.0
51886.0,STARLINK-3565,PAYLOAD,2022-10-31 12:39:15,15.08845782,0.0001551999999999,53.2166,99.0965,56.6516,303.4624,0.00010499,1.384e-05,0.0,0 STARLINK-3565,1 51886U 22022AL  22304.52725872  .00001384  00000-0  10499-3 0  9997,2 51886  53.2166  99.0965 0001552  56.6516 303.4624 15.08845782 38295,6917.863,95.437,540.8009999999998,538.654,0.0
51886.0,STARLINK-3565,PAYLOAD,2022-11-01 12:30:04,15.08809063,5.3e-05,53.2169,94.6367,12.6609,347.4396,-0.00015836,-2.805e-05,0.0,0 STARLINK-3565,1 51886U 22022AL  22305.52088860 -.00002805  00000-0 -15836-3 0  9998,2 51886  53.2169  94.6367 0000530  12.6609 347.4396 15.08809063 38448,6917.975,95.44,540.207,539.4730000000002,0.0
51886.0,STARLINK-3565,PAYLOAD,2022-11-01 18:51:35,15.08833616,0.0001613,53.2182,93.4482,62.8018,297.3138,5.3795e-05,5.68e-06,0.0,0 STARLINK-3565,1 51886U 22022AL  22305.78583170  .00000568  00000-0  53795-4 0  9999,2 51886  53.2182  93.4482 0001613  62.8018 297.3138 15.08833616 38484,6917.9,95.438,540.881,538.649,0.0
51886.0,STARLINK-3565,PAYLOAD,2022-11-02 12:20:49,15.08844217,0.0001698,53.2189,90.1778,70.1243,289.9932,3.467e-05,2.64e-06,0.0,0 STARLINK-3565,1 51886U 22022AL  22306.51446714  .00000264  00000-0  34670-4 0  9997,2 51886  53.2189  90.1778 0001698  70.1243 289.9932 15.08844217 38598,6917.8669999999975,95.437,540.9069999999998,538.558,0.0
51886.0,STARLINK-3565,PAYLOAD,2022-11-02 18:42:22,15.08839195,0.0001554,53.2187,88.9882,53.3837,306.7298,-8.9756e-07,-3.02e-06,0.0,0 STARLINK-3565,1 51886U 22022AL  22306.77943156 -.00000302  00000-0 -89756-6 0  9999,2 51886  53.2187  88.9882 0001554  53.3837 306.7298 15.08839195 38637,6917.8830000000025,95.438,540.823,538.673,0.0
51886.0,STARLINK-3565,PAYLOAD,2022-11-03 12:11:36,15.08851165,0.0001641,53.2168,85.7156,56.6497,303.4652,0.00026781,3.978e-05,0.0,0 STARLINK-3565,1 51886U 22022AL  22307.50806260  .00003978  00000-0  26781-3 0  9991,2 51886  53.2168  85.7156 0001641  56.6497 303.4652 15.08851165 38741,6917.846,95.437,540.846,538.576,0.0
51886.0,STARLINK-3565,PAYLOAD,2022-11-03 18:33:09,15.08844865,0.0001365,53.2166,84.5259,60.32100000000001,299.7918,0.00040521,6.168e-05,0.0,0 STARLINK-3565,1 51886U 22022AL  22307.77302819  .00006168  00000-0  40521-3 0  9993,2 51886  53.2166  84.5259 0001365  60.3210 299.7918 15.08844865 38783,6917.866,95.437,540.675,538.786,0.0
51886.0,STARLINK-3565,PAYLOAD,2022-11-04 08:51:34,15.08912176,9.51e-05,53.2166,81.8494,36.7296,323.3762,-0.0014156,-0.0002279,0.0,0 STARLINK-3565,1 51886U 22022AL  22308.36915176 -.00022790  00000-0 -14156-2 0  9990,2 51886  53.2166  81.8494 0000951  36.7296 323.3762 15.08912176 38877,6917.66,95.433,540.183,538.867,0.0
